[{"OBJECT_NAME":"STARLINK-30464","OBJECT_ID":"2023-146T","EPOCH":"2026-03-09T00:58:39.595584","MEAN_MOTION":15.03351281,"ECCENTRICITY":0.00013307,"INCLINATION":43.0003,"RA_OF_ASC_NODE":316.4432,"ARG_OF_PERICENTER":268.6034,"MEAN_ANOMALY":91.4656,"EPHEMERIS_TYPE":0,"CLASSIFICATION_TYPE":"U","NORAD_CAT_ID":57908,"ELEMENT_SET_NO":999,"REV_AT_EPOCH":13591,"BSTAR":5.903593e-5,"MEAN_MOTION_DOT":6.1e-6,"MEAN_MOTION_DDOT":0},{"OBJECT_NAME":"H-2A R\/B","OBJECT_ID":"2009-002J","EPOCH":"2026-03-09T23:38:52.170720","MEAN_MOTION":15.01829324,"ECCENTRICITY":0.00333022,"INCLINATION":98.2328,"RA_OF_ASC_NODE":87.9691,"ARG_OF_PERICENTER":111.7239,"MEAN_ANOMALY":248.7534,"EPHEMERIS_TYPE":0,"CLASSIFICATION_TYPE":"U","NORAD_CAT_ID":33500,"ELEMENT_SET_NO":999,"REV_AT_EPOCH":92943,"BSTAR":0.00033449169,"MEAN_MOTION_DOT":4.347e-5,"MEAN_MOTION_DDOT":0}]
